[{"OBJECT_NAME":"STARLINK-30988","OBJECT_ID":"2023-191X","EPOCH":"2026-03-09T10:30:18.410112","MEAN_MOTION":15.27584834,"ECCENTRICITY":0.00011644,"INCLINATION":42.9991,"RA_OF_ASC_NODE":104.7823,"ARG_OF_PERICENTER":338.4821,"MEAN_ANOMALY":21.5982,"EPHEMERIS_TYPE":0,"CLASSIFICATION_TYPE":"U","NORAD_CAT_ID":58529,"ELEMENT_SET_NO":999,"REV_AT_EPOCH":12543,"BSTAR":0.00021102299,"MEAN_MOTION_DOT":5.55e-5,"MEAN_MOTION_DDOT":0},{"OBJECT_NAME":"HERMES-5","OBJECT_ID":"2025-052BQ","EPOCH":"2026-03-09T22:33:51.245280","MEAN_MOTION":15.26210393,"ECCENTRICITY":0.0006071,"INCLINATION":97.4082,"RA_OF_ASC_NODE":324.1247,"ARG_OF_PERICENTER":124.4334,"MEAN_ANOMALY":235.7479,"EPHEMERIS_TYPE":0,"CLASSIFICATION_TYPE":"U","NORAD_CAT_ID":63834,"ELEMENT_SET_NO":999,"REV_AT_EPOCH":5480,"BSTAR":0.00068450239,"MEAN_MOTION_DOT":0.00017673,"MEAN_MOTION_DDOT":0}]
